NORAD_CAT_ID,OBJECT_NAME,OBJECT_TYPE,EPOCH,MEAN_MOTION,ECCENTRICITY,INCLINATION,RA_OF_ASC_NODE,ARG_OF_PERICENTER,MEAN_ANOMALY,BSTAR,MEAN_MOTION_DOT,MEAN_MOTION_DDOT,TLE_LINE0,TLE_LINE1,TLE_LINE2,SEMIMAJOR_AXIS,PERIOD,APOGEE,PERIGEE,DECAYED
54006.0,STARLINK-5096,PAYLOAD,2023-07-21 01:19:54,15.08839593,0.000111,53.2158,215.1266,86.2651,273.8468,0.00010962,1.457e-05,0.0,0 STARLINK-5096,1 54006U 22125AU  23202.05549159  .00001457  00000-0  10962-3 0  9992,2 54006  53.2158 215.1266 0001110  86.2651 273.8468 15.08839593 44192,6917.882,95.438,540.515,538.979,0.0
54006.0,STARLINK-5096,PAYLOAD,2023-07-24 00:52:16,15.08834629,0.0001165,53.2156,201.7448,86.921,273.1915,4.394e-05,4.11e-06,0.0,0 STARLINK-5096,1 54006U 22125AU  23205.03630014  .00000411  00000-0  43940-4 0  9996,2 54006  53.2156 201.7448 0001165  86.9210 273.1915 15.08834629 44589,6917.897,95.438,540.568,538.956,0.0
54006.0,STARLINK-5096,PAYLOAD,2023-07-25 11:50:44,15.08843657,0.000122,53.2158,195.2027,90.916,269.1972,0.00010443,1.375e-05,0.0,0 STARLINK-5096,1 54006U 22125AU  23206.49357518  .00001375  00000-0  10443-3 0  9993,2 54006  53.2158 195.2027 0001220  90.9160 269.1972 15.08843657 44806,6917.869,95.437,540.578,538.89,0.0
54006.0,STARLINK-5096,PAYLOAD,2023-07-26 22:49:13,15.08845833,0.0001225,53.2152,188.6606,92.5944,267.5188,6.1082e-05,6.85e-06,0.0,0 STARLINK-5096,1 54006U 22125AU  23207.95085424  .00000685  00000-0  61082-4 0  9998,2 54006  53.2152 188.6606 0001225  92.5944 267.5188 15.08845833 45026,6917.863,95.437,540.575,538.88,0.0
54006.0,STARLINK-5096,PAYLOAD,2023-07-27 08:21:32,15.08846606,0.0001212,53.2151,186.8768,94.4163,265.6967,6.1094e-05,6.85e-06,0.0,0 STARLINK-5096,1 54006U 22125AU  23208.34829210  .00000685  00000-0  61094-4 0  9994,2 54006  53.2151 186.8768 0001212  94.4163 265.6967 15.08846606 45083,6917.86,95.437,540.564,538.887,0.0
54006.0,STARLINK-5096,PAYLOAD,2023-07-27 22:40:01,15.08834257,0.0001584,53.2158,184.2,92.873,267.2443,-1.6605e-05,-5.52e-06,0.0,0 STARLINK-5096,1 54006U 22125AU  23208.94446359 -.00000552  00000-0 -16605-4 0  9992,2 54006  53.2158 184.2000 0001584  92.8730 267.2443 15.08834257 45238,6917.898,95.438,540.859,538.667,0.0
54006.0,STARLINK-5096,PAYLOAD,2023-07-28 08:12:20,15.08831778,0.0001254,53.2155,182.4153,102.4316,257.6817,-8.5129e-05,-1.642e-05,0.0,0 STARLINK-5096,1 54006U 22125AU  23209.34190771 -.00001642  00000-0 -85129-4 0  9999,2 54006  53.2155 182.4153 0001254 102.4316 257.6817 15.08831778 45239,6917.906,95.438,540.638,538.903,0.0
54006.0,STARLINK-5096,PAYLOAD,2023-07-29 01:41:34,15.08838409,0.0001617,53.2171,179.1456,95.8833,264.2344,3.1888e-05,2.19e-06,0.0,0 STARLINK-5096,1 54006U 22125AU  23210.07054252  .00000219  00000-0  31888-4 0  9994,2 54006  53.2171 179.1456 0001617  95.8833 264.2344 15.08838409 45404,6917.885,95.438,540.869,538.632,0.0
54006.0,STARLINK-5096,PAYLOAD,2023-07-30 07:53:54,15.08839989,0.0001244,53.216,173.4958,83.9999,276.1134,0.00017626,2.518e-05,0.0,0 STARLINK-5096,1 54006U 22125AU  23211.32910042  .00002518  00000-0  17626-3 0  9998,2 54006  53.2160 173.4958 0001244  83.9999 276.1134 15.08839989 45596,6917.88,95.438,540.606,538.885,0.0
54006.0,STARLINK-5096,PAYLOAD,2023-07-31 01:23:09,15.08840453,0.0001264,53.2161,170.2207,89.9658,270.1478,2.7217e-05,1.45e-06,0.0,0 STARLINK-5096,1 54006U 22125AU  23212.05774525  .00000145  00000-0  27217-4 0  9995,2 54006  53.2161 170.2207 0001264  89.9658 270.1478 15.08840453 45705,6917.879,95.438,540.618,538.87,0.0
54006.0,STARLINK-5096,PAYLOAD,2023-08-01 01:13:56,15.08833926,0.0001248,53.2159,165.7648,92.683,267.4305,1.8996e-05,1.4e-07,0.0,0 STARLINK-5096,1 54006U 22125AU  23213.05135148  .00000014  00000-0  18996-4 0  9997,2 54006  53.2159 165.7648 0001248  92.6830 267.4305 15.08833926 45856,6917.899,95.438,540.627,538.901,0.0
54006.0,STARLINK-5096,PAYLOAD,2023-08-01 06:00:05,15.0883983,0.0001285,53.2161,164.8728,92.2278,267.8861,6.2679e-05,7.1e-06,0.0,0 STARLINK-5096,1 54006U 22125AU  23213.25006702  .00000710  00000-0  62679-4 0  9992,2 54006  53.2161 164.8728 0001285  92.2278 267.8861 15.08839830 45885,6917.881,95.438,540.635,538.857,0.0
54006.0,STARLINK-5096,PAYLOAD,2023-08-02 13:47:48,15.0883778,0.0001189,53.216,158.9238,96.02,264.0927,-4.9898e-07,-2.96e-06,0.0,0 STARLINK-5096,1 54006U 22125AU  23214.57487116 -.00000296  00000-0 -49898-6 0  9991,2 54006  53.2160 158.9238 0001189  96.0200 264.0927 15.08837780 46081,6917.887,95.438,540.575,538.93,0.0
54006.0,STARLINK-5096,PAYLOAD,2023-08-03 02:30:53,15.08846191,0.0001207,53.2161,156.5442,95.2143,264.8987,8.8352e-05,1.119e-05,0.0,0 STARLINK-5096,1 54006U 22125AU  23215.10478458  .00001119  00000-0  88352-4 0  9999,2 54006  53.2161 156.5442 0001207  95.2143 264.8987 15.08846191 46160,6917.861,95.437,540.561,538.891,0.0
54006.0,STARLINK-5096,PAYLOAD,2023-08-04 02:21:41,15.08841097,0.0001234,53.2164,152.0859,86.563,273.5503,1.584e-06,-2.63e-06,0.0,0 STARLINK-5096,1 54006U 22125AU  23216.09839198 -.00000263  00000-0  15840-5 0  9993,2 54006  53.2164 152.0859 0001234  86.5630 273.5503 15.08841097 46318,6917.877,95.437,540.596,538.888,0.0
54006.0,STARLINK-5096,PAYLOAD,2023-08-05 05:23:14,15.08849815,0.0001438,53.217,147.0271,102.9728,257.1424,-4.0077e-05,-9.26e-06,0.0,0 STARLINK-5096,1 54006U 22125AU  23217.22446765 -.00000926  00000-0 -40077-4 0  9999,2 54006  53.2170 147.0271 0001438 102.9728 257.1424 15.08849815 46488,6917.85,95.437,540.71,538.721,0.0
54006.0,STARLINK-5096,PAYLOAD,2023-08-06 02:03:13,15.08855807,0.0001159,53.2162,143.1639,93.587,266.5254,0.00017756,2.54e-05,0.0,0 STARLINK-5096,1 54006U 22125AU  23218.08557544  .00002540  00000-0  17756-3 0  9991,2 54006  53.2162 143.1639 0001159  93.5870 266.5254 15.08855807 46615,6917.832,95.437,540.499,538.895,0.0
54006.0,STARLINK-5096,PAYLOAD,2023-08-06 11:35:34,15.08832911,0.0001414,53.2166,141.3777,94.1409,265.9744,3.0907e-05,2.04e-06,0.0,0 STARLINK-5096,1 54006U 22125AU  23218.48303525  .00000204  00000-0  30907-4 0  9992,2 54006  53.2166 141.3777 0001414  94.1409 265.9744 15.08832911 46675,6917.902,95.438,540.745,538.789,0.0
54006.0,STARLINK-5096,PAYLOAD,2023-08-07 01:54:03,15.08828266,0.0001255,53.217,138.7064,111.2646,248.8481,-9.9428e-05,-1.869e-05,0.0,0 STARLINK-5096,1 54006U 22125AU  23219.07920763 -.00001869  00000-0 -99428-4 0  9990,2 54006  53.2170 138.7064 0001255 111.2646 248.8481 15.08828266 46762,6917.916,95.438,540.649,538.913,0.0
54006.0,STARLINK-5096,PAYLOAD,2023-08-07 05:04:49,15.0882885,0.0001333,53.2164,138.1106,109.1913,250.9224,-0.00017988,-3.149e-05,0.0,0 STARLINK-5096,1 54006U 22125AU  23219.21167965 -.00003149  00000-0 -17988-3 0  9996,2 54006  53.2164 138.1106 0001333 109.1913 250.9224 15.08828850 46786,6917.914,95.438,540.702,538.857,0.0
54006.0,STARLINK-5096,PAYLOAD,2023-08-07 11:26:21,15.08834894,0.0001249,53.2167,136.9212,100.0741,260.0392,-0.000107,-1.99e-05,0.0,0 STARLINK-5096,1 54006U 22125AU  23219.47663601 -.00001990  00000-0 -10700-3 0  9999,2 54006  53.2167 136.9212 0001249 100.0741 260.0392 15.08834894 46826,6917.896,95.438,540.625,538.897,0.0
54006.0,STARLINK-5096,PAYLOAD,2023-08-08 00:09:25,15.08852395,0.0001138,53.2157,134.5416,104.052,256.0598,0.00016763,2.382e-05,0.0,0 STARLINK-5096,1 54006U 22125AU  23220.00654884  .00002382  00000-0  16763-3 0  9992,2 54006  53.2157 134.5416 0001138 104.0520 256.0598 15.08852395 46909,6917.843,95.437,540.495,538.92,0.0
54006.0,STARLINK-5096,PAYLOAD,2023-08-08 17:38:40,15.08849796,0.0001541,53.2147,131.2722,98.4362,261.6805,0.00046062,7.052e-05,0.0,0 STARLINK-5096,1 54006U 22125AU  23220.73519437  .00007052  00000-0  46062-3 0  9990,2 54006  53.2147 131.2722 0001541  98.4362 261.6805 15.08849796 47017,6917.85,95.437,540.781,538.649,0.0
54006.0,STARLINK-5096,PAYLOAD,2023-08-09 03:10:59,15.08846363,0.0001563,53.2151,129.4865,95.1838,264.9333,0.00019175,2.766e-05,0.0,0 STARLINK-5096,1 54006U 22125AU  23221.13263352  .00002766  00000-0  19175-3 0  9999,2 54006  53.2151 129.4865 0001563  95.1838 264.9333 15.08846363 47070,6917.861,95.437,540.807,538.645,0.0
54006.0,STARLINK-5096,PAYLOAD,2023-08-09 11:07:55,15.08836489,0.0001671,53.215,127.9983,89.4058,270.7125,1.1639e-05,-1.03e-06,0.0,0 STARLINK-5096,1 54006U 22125AU  23221.46383865 -.00000103  00000-0  11639-4 0  9999,2 54006  53.2150 127.9983 0001671  89.4058 270.7125 15.08836489 47121,6917.891,95.438,540.912,538.6,0.0
54006.0,STARLINK-5096,PAYLOAD,2023-08-10 17:20:14,15.08851693,0.0001826,53.2107,122.3509,82.8912,277.2287,-3.9303e-05,-9.14e-06,0.0,0 STARLINK-5096,1 54006U 22125AU  23222.72239378 -.00000914  00000-0 -39303-4 0  9997,2 54006  53.2107 122.3509 0001826  82.8912 277.2287 15.08851693 47310,6917.845,95.437,540.973,538.446,0.0
54006.0,STARLINK-5096,PAYLOAD,2023-08-11 17:11:02,15.08839284,0.0001446,53.2146,117.8886,82.491,277.6247,0.0001783,2.551e-05,0.0,0 STARLINK-5096,1 54006U 22125AU  23223.71600201  .00002551  00000-0  17830-3 0  9991,2 54006  53.2146 117.8886 0001446  82.4910 277.6247 15.08839284 47460,6917.883,95.438,540.748,538.747,0.0
54006.0,STARLINK-5096,PAYLOAD,2023-08-13 02:34:08,15.08848358,0.0001245,53.2159,111.6441,84.0356,276.0778,0.00027224,4.048e-05,0.0,0 STARLINK-5096,1 54006U 22125AU  23225.10703813  .00004048  00000-0  27224-3 0  9990,2 54006  53.2159 111.6441 0001245  84.0356 276.0778 15.08848358 47679,6917.855,95.437,540.581,538.859,0.0
54006.0,STARLINK-5096,PAYLOAD,2023-08-14 00:49:32,15.08840661,0.0001203,53.2157,107.4804,80.246,279.8667,6.5598e-05,7.56e-06,0.0,0 STARLINK-5096,1 54006U 22125AU  23226.03440071  .00000756  00000-0  65598-4 0  9996,2 54006  53.2157 107.4804 0001203  80.2460 279.8667 15.08840661 47814,6917.878,95.438,540.576,538.911,0.0
54006.0,STARLINK-5096,PAYLOAD,2023-08-16 00:31:06,15.08840182,0.0001271,53.216,98.5604,85.2655,274.8482,7.3715e-05,8.85e-06,0.0,0 STARLINK-5096,1 54006U 22125AU  23228.02160228  .00000885  00000-0  73715-4 0  9993,2 54006  53.2160  98.5604 0001271  85.2655 274.8482 15.08840182 48114,6917.88,95.438,540.624,538.866,0.0
